TEVEL2-1                
1 63217U 25052H   26068.64782323  .00020683  00000+0  70600-3 0  9994
2 63217  97.3991 324.7682 0004767 104.8919 255.2849 15.30341923 54855
STARLINK-33668          
1 63402U 25065D   26068.46037319  .00022295  00000+0  81706-3 0  9992
2 63402  42.9904 108.4811 0001442  73.3421 286.7589 15.27588199 52804
